STARLINK-30069          
1 56834U 23079M   26067.48212902 -.00002416  00000+0 -80472-4 0  9995
2 56834  42.9986 110.4464 0000469 272.6695  87.4103 15.26726881152740
STARLINK-31727          
1 59638U 24082H   26067.61913985 -.00000502  00000+0 -87427-5 0  9991
2 59638  43.0027 146.2440 0001098 232.1445 127.9307 15.27561531104694
